<?xml version="1.0" encoding="UTF-8"?>
<ndm xmlns:xsi="http://www.w3.org/2001/XMLSchema-instance" xsi:noNamespaceSchemaLocation="https://sanaregistry.org/r/ndmxml_unqualified/ndmxml-2.0.0-master-2.0.xsd">
<omm id="CCSDS_OMM_VERS" version="2.0">
<header><CREATION_DATE/><ORIGINATOR/></header><body><segment><metadata><OBJECT_NAME>ORBCOMM-X</OBJECT_NAME><OBJECT_ID>1991-050C</OBJECT_ID><CENTER_NAME>EARTH</CENTER_NAME><REF_FRAME>TEME</REF_FRAME><TIME_SYSTEM>UTC</TIME_SYSTEM><MEAN_ELEMENT_THEORY>SGP4</MEAN_ELEMENT_THEORY></metadata><data><meanElements><EPOCH>2024-07-22T04:11:18.934944</EPOCH><MEAN_MOTION>14.42602726</MEAN_MOTION><ECCENTRICITY>.0004903</ECCENTRICITY><INCLINATION>98.3880</INCLINATION><RA_OF_ASC_NODE>270.8340</RA_OF_ASC_NODE><ARG_OF_PERICENTER>102.2467</ARG_OF_PERICENTER><MEAN_ANOMALY>257.9272</MEAN_ANOMALY></meanElements><tleParameters><EPHEMERIS_TYPE>0</EPHEMERIS_TYPE><CLASSIFICATION_TYPE>U</CLASSIFICATION_TYPE><NORAD_CAT_ID>21576</NORAD_CAT_ID><ELEMENT_SET_NO>999</ELEMENT_SET_NO><REV_AT_EPOCH>73474</REV_AT_EPOCH><BSTAR>.28787E-3</BSTAR><MEAN_MOTION_DOT>.913E-5</MEAN_MOTION_DOT><MEAN_MOTION_DDOT>0</MEAN_MOTION_DDOT></tleParameters></data></segment></body></omm>
<omm id="CCSDS_OMM_VERS" version="2.0">
<header><CREATION_DATE/><ORIGINATOR/></header><body><segment><metadata><OBJECT_NAME>ORBCOMM FM01</OBJECT_NAME><OBJECT_ID>1995-017A</OBJECT_ID><CENTER_NAME>EARTH</CENTER_NAME><REF_FRAME>TEME</REF_FRAME><TIME_SYSTEM>UTC</TIME_SYSTEM><MEAN_ELEMENT_THEORY>SGP4</MEAN_ELEMENT_THEORY></metadata><data><meanElements><EPOCH>2024-07-22T04:43:53.759136</EPOCH><MEAN_MOTION>14.81172234</MEAN_MOTION><ECCENTRICITY>.0003114</ECCENTRICITY><INCLINATION>69.9662</INCLINATION><RA_OF_ASC_NODE>171.8978</RA_OF_ASC_NODE><ARG_OF_PERICENTER>137.2635</ARG_OF_PERICENTER><MEAN_ANOMALY>222.8757</MEAN_ANOMALY></meanElements><tleParameters><EPHEMERIS_TYPE>0</EPHEMERIS_TYPE><CLASSIFICATION_TYPE>U</CLASSIFICATION_TYPE><NORAD_CAT_ID>23545</NORAD_CAT_ID><ELEMENT_SET_NO>999</ELEMENT_SET_NO><REV_AT_EPOCH>56383</REV_AT_EPOCH><BSTAR>.16085E-2</BSTAR><MEAN_MOTION_DOT>.12476E-3</MEAN_MOTION_DOT><MEAN_MOTION_DDOT>0</MEAN_MOTION_DDOT></tleParameters></data></segment></body></omm>
<omm id="CCSDS_OMM_VERS" version="2.0">
<header><CREATION_DATE/><ORIGINATOR/></header><body><segment><metadata><OBJECT_NAME>ORBCOMM FM02</OBJECT_NAME><OBJECT_ID>1995-017B</OBJECT_ID><CENTER_NAME>EARTH</CENTER_NAME><REF_FRAME>TEME</REF_FRAME><TIME_SYSTEM>UTC</TIME_SYSTEM><MEAN_ELEMENT_THEORY>SGP4</MEAN_ELEMENT_THEORY></metadata><data><meanElements><EPOCH>2024-07-22T09:05:35.593152</EPOCH><MEAN_MOTION>14.80838020</MEAN_MOTION><ECCENTRICITY>.0004389</ECCENTRICITY><INCLINATION>69.9670</INCLINATION><RA_OF_ASC_NODE>190.9909</RA_OF_ASC_NODE><ARG_OF_PERICENTER>112.7725</ARG_OF_PERICENTER><MEAN_ANOMALY>247.3889</MEAN_ANOMALY></meanElements><tleParameters><EPHEMERIS_TYPE>0</EPHEMERIS_TYPE><CLASSIFICATION_TYPE>U</CLASSIFICATION_TYPE><NORAD_CAT_ID>23546</NORAD_CAT_ID><ELEMENT_SET_NO>999</ELEMENT_SET_NO><REV_AT_EPOCH>56345</REV_AT_EPOCH><BSTAR>.16336E-2</BSTAR><MEAN_MOTION_DOT>.12572E-3</MEAN_MOTION_DOT><MEAN_MOTION_DDOT>0</MEAN_MOTION_DDOT></tleParameters></data></segment></body></omm>
<omm id="CCSDS_OMM_VERS" version="2.0">
<header><CREATION_DATE/><ORIGINATOR/></header><body><segment><metadata><OBJECT_NAME>ORBCOMM FM08</OBJECT_NAME><OBJECT_ID>1997-084A</OBJECT_ID><CENTER_NAME>EARTH</CENTER_NAME><REF_FRAME>TEME</REF_FRAME><TIME_SYSTEM>UTC</TIME_SYSTEM><MEAN_ELEMENT_THEORY>SGP4</MEAN_ELEMENT_THEORY></metadata><data><meanElements><EPOCH>2024-07-22T04:06:39.696192</EPOCH><MEAN_MOTION>14.42981010</MEAN_MOTION><ECCENTRICITY>.0008311</ECCENTRICITY><INCLINATION>45.0134</INCLINATION><RA_OF_ASC_NODE>149.0104</RA_OF_ASC_NODE><ARG_OF_PERICENTER>14.4350</ARG_OF_PERICENTER><MEAN_ANOMALY>345.6736</MEAN_ANOMALY></meanElements><tleParameters><EPHEMERIS_TYPE>0</EPHEMERIS_TYPE><CLASSIFICATION_TYPE>U</CLASSIFICATION_TYPE><NORAD_CAT_ID>25112</NORAD_CAT_ID><ELEMENT_SET_NO>999</ELEMENT_SET_NO><REV_AT_EPOCH>39382</REV_AT_EPOCH><BSTAR>.14043E-2</BSTAR><MEAN_MOTION_DOT>.4606E-4</MEAN_MOTION_DOT><MEAN_MOTION_DDOT>0</MEAN_MOTION_DDOT></tleParameters></data></segment></body></omm>
<omm id="CCSDS_OMM_VERS" version="2.0">
<header><CREATION_DATE/><ORIGINATOR/></header><body><segment><metadata><OBJECT_NAME>ORBCOMM FM10</OBJECT_NAME><OBJECT_ID>1997-084B</OBJECT_ID><CENTER_NAME>EARTH</CENTER_NAME><REF_FRAME>TEME</REF_FRAME><TIME_SYSTEM>UTC</TIME_SYSTEM><MEAN_ELEMENT_THEORY>SGP4</MEAN_ELEMENT_THEORY></metadata><data><meanElements><EPOCH>2024-07-22T07:43:23.114784</EPOCH><MEAN_MOTION>14.42877814</MEAN_MOTION><ECCENTRICITY>.0006444</ECCENTRICITY><INCLINATION>45.0147</INCLINATION><RA_OF_ASC_NODE>150.2109</RA_OF_ASC_NODE><ARG_OF_PERICENTER>348.4438</ARG_OF_PERICENTER><MEAN_ANOMALY>11.6264</MEAN_ANOMALY></meanElements><tleParameters><EPHEMERIS_TYPE>0</EPHEMERIS_TYPE><CLASSIFICATION_TYPE>U</CLASSIFICATION_TYPE><NORAD_CAT_ID>25113</NORAD_CAT_ID><ELEMENT_SET_NO>999</ELEMENT_SET_NO><REV_AT_EPOCH>39383</REV_AT_EPOCH><BSTAR>.13708E-2</BSTAR><MEAN_MOTION_DOT>.4482E-4</MEAN_MOTION_DOT><MEAN_MOTION_DDOT>0</MEAN_MOTION_DDOT></tleParameters></data></segment></body></omm>
<omm id="CCSDS_OMM_VERS" version="2.0">
<header><CREATION_DATE/><ORIGINATOR/></header><body><segment><metadata><OBJECT_NAME>ORBCOMM FM11</OBJECT_NAME><OBJECT_ID>1997-084C</OBJECT_ID><CENTER_NAME>EARTH</CENTER_NAME><REF_FRAME>TEME</REF_FRAME><TIME_SYSTEM>UTC</TIME_SYSTEM><MEAN_ELEMENT_THEORY>SGP4</MEAN_ELEMENT_THEORY></metadata><data><meanElements><EPOCH>2024-07-22T05:00:13.787424</EPOCH><MEAN_MOTION>14.42736689</MEAN_MOTION><ECCENTRICITY>.0007236</ECCENTRICITY><INCLINATION>45.0133</INCLINATION><RA_OF_ASC_NODE>150.8836</RA_OF_ASC_NODE><ARG_OF_PERICENTER>348.3174</ARG_OF_PERICENTER><MEAN_ANOMALY>11.7508</MEAN_ANOMALY></meanElements><tleParameters><EPHEMERIS_TYPE>0</EPHEMERIS_TYPE><CLASSIFICATION_TYPE>U</CLASSIFICATION_TYPE><NORAD_CAT_ID>25114</NORAD_CAT_ID><ELEMENT_SET_NO>999</ELEMENT_SET_NO><REV_AT_EPOCH>39380</REV_AT_EPOCH><BSTAR>.11019E-2</BSTAR><MEAN_MOTION_DOT>.3564E-4</MEAN_MOTION_DOT><MEAN_MOTION_DDOT>0</MEAN_MOTION_DDOT></tleParameters></data></segment></body></omm>
<omm id="CCSDS_OMM_VERS" version="2.0">
<header><CREATION_DATE/><ORIGINATOR/></header><body><segment><metadata><OBJECT_NAME>ORBCOMM FM12</OBJECT_NAME><OBJECT_ID>1997-084D</OBJECT_ID><CENTER_NAME>EARTH</CENTER_NAME><REF_FRAME>TEME</REF_FRAME><TIME_SYSTEM>UTC</TIME_SYSTEM><MEAN_ELEMENT_THEORY>SGP4</MEAN_ELEMENT_THEORY></metadata><data><meanElements><EPOCH>2024-07-22T04:05:01.239936</EPOCH><MEAN_MOTION>14.42699290</MEAN_MOTION><ECCENTRICITY>.0006257</ECCENTRICITY><INCLINATION>45.0139</INCLINATION><RA_OF_ASC_NODE>150.7878</RA_OF_ASC_NODE><ARG_OF_PERICENTER>347.8333</ARG_OF_PERICENTER><MEAN_ANOMALY>12.2365</MEAN_ANOMALY></meanElements><tleParameters><EPHEMERIS_TYPE>0</EPHEMERIS_TYPE><CLASSIFICATION_TYPE>U</CLASSIFICATION_TYPE><NORAD_CAT_ID>25115</NORAD_CAT_ID><ELEMENT_SET_NO>999</ELEMENT_SET_NO><REV_AT_EPOCH>39380</REV_AT_EPOCH><BSTAR>.11847E-2</BSTAR><MEAN_MOTION_DOT>.3839E-4</MEAN_MOTION_DOT><MEAN_MOTION_DDOT>0</MEAN_MOTION_DDOT></tleParameters></data></segment></body></omm>
<omm id="CCSDS_OMM_VERS" version="2.0">
<header><CREATION_DATE/><ORIGINATOR/></header><body><segment><metadata><OBJECT_NAME>ORBCOMM FM09</OBJECT_NAME><OBJECT_ID>1997-084E</OBJECT_ID><CENTER_NAME>EARTH</CENTER_NAME><REF_FRAME>TEME</REF_FRAME><TIME_SYSTEM>UTC</TIME_SYSTEM><MEAN_ELEMENT_THEORY>SGP4</MEAN_ELEMENT_THEORY></metadata><data><meanElements><EPOCH>2024-07-22T04:23:56.876352</EPOCH><MEAN_MOTION>14.42663636</MEAN_MOTION><ECCENTRICITY>.0007389</ECCENTRICITY><INCLINATION>45.0141</INCLINATION><RA_OF_ASC_NODE>151.4339</RA_OF_ASC_NODE><ARG_OF_PERICENTER>336.5043</ARG_OF_PERICENTER><MEAN_ANOMALY>23.5468</MEAN_ANOMALY></meanElements><tleParameters><EPHEMERIS_TYPE>0</EPHEMERIS_TYPE><CLASSIFICATION_TYPE>U</CLASSIFICATION_TYPE><NORAD_CAT_ID>25116</NORAD_CAT_ID><ELEMENT_SET_NO>999</ELEMENT_SET_NO><REV_AT_EPOCH>39380</REV_AT_EPOCH><BSTAR>.12515E-2</BSTAR><MEAN_MOTION_DOT>.4061E-4</MEAN_MOTION_DOT><MEAN_MOTION_DDOT>0</MEAN_MOTION_DDOT></tleParameters></data></segment></body></omm>

</ndm>
